0 SL-16 DEB
1 22407U 92093CY  13280.72203039  .00000369  00000-0  34504-3 0  9760
2 22407 070.8617 229.6652 0181887 132.7720 299.0340 13.80985559 43774
0 SL-16 DEB
1 22407U 92093CY  13282.97784632  .00000359  00000-0  33644-3 0  9776
2 22407 070.8619 225.1550 0181848 129.5415 353.9767 13.80988514 44088
0 SL-16 DEB
1 22407U 92093CY  13285.86486387  .00000377  00000-0  35139-3 0  9785
2 22407 070.8622 219.3830 0181804 125.4004 307.0200 13.80990669 44489
0 SL-16 DEB
1 22407U 92093CY  13288.19149061  .00000558  00000-0  50268-3 0  9791
2 22407 070.8622 214.7315 0181801 122.0614 354.0574 13.80993210 44800
0 SL-16 DEB
1 22407U 92093CY  13290.22668113  .00000533  00000-0  48134-3 0  9806
2 22407 070.8621 210.6627 0181820 119.1299 032.2192 13.80995179 45085
0 SL-16 DEB
1 22407U 92093CY  13292.52561919  .00000518  00000-0  46914-3 0  9815
2 22407 070.8618 206.0667 0181837 115.8273 301.6394 13.80997814 45408
0 SL-16 DEB
1 22407U 92093CY  13294.62970086  .00000543  00000-0  49021-3 0  9828
2 22407 070.8616 201.8601 0181872 112.8056 322.3277 13.81000505 45696
